{"fetched_at":"2026-07-16T06:42:30.025Z","source":"https://celestrak.org/NORAD/elements/gp.php?GROUP=iridium-NEXT&FORMAT=JSON","constellation":"iridium","records":[{"OBJECT_NAME":"IRIDIUM 126","OBJECT_ID":"2017-039G","EPOCH":"2026-07-15T23:06:46.945440","CLASSIFICATION_TYPE":"U","MEAN_MOTION":14.34217578,"ECCENTRICITY":0.0002072,"INCLINATION":86.3992,"RA_OF_ASC_NODE":341.6148,"ARG_OF_PERICENTER":90.9643,"MEAN_ANOMALY":269.179,"EPHEMERIS_TYPE":0,"NORAD_CAT_ID":42809,"ELEMENT_SET_NO":999,"REV_AT_EPOCH":47407,"BSTAR":-0.000002744605,"MEAN_MOTION_DOT":1.2e-7,"MEAN_MOTION_DDOT":0},{"OBJECT_NAME":"IRIDIUM 124","OBJECT_ID":"2017-039H","EPOCH":"2026-07-15T18:07:39.849312","CLASSIFICATION_TYPE":"U","MEAN_MOTION":14.43286373,"ECCENTRICITY":0.00023244,"INCLINATION":86.4482,"RA_OF_ASC_NODE":278.4146,"ARG_OF_PERICENTER":97.0036,"MEAN_ANOMALY":263.1429,"EPHEMERIS_TYPE":0,"NORAD_CAT_ID":42810,"ELEMENT_SET_NO":999,"REV_AT_EPOCH":47923,"BSTAR":0.00004952415,"MEAN_MOTION_DOT":0.00000187,"MEAN_MOTION_DDOT":0},{"OBJECT_NAME":"IRIDIUM 128","OBJECT_ID":"2017-039J","EPOCH":"2026-07-15T21:12:58.978080","CLASSIFICATION_TYPE":"U","MEAN_MOTION":14.34216836,"ECCENTRICITY":0.00022698,"INCLINATION":86.3965,"RA_OF_ASC_NODE":13.1487,"ARG_OF_PERICENTER":94.0642,"MEAN_ANOMALY":266.0813,"EPHEMERIS_TYPE":0,"NORAD_CAT_ID":42811,"ELEMENT_SET_NO":999,"REV_AT_EPOCH":47409,"BSTAR":0.000006710893,"MEAN_MOTION_DOT":3.9e-7,"MEAN_MOTION_DDOT":0},{"OBJECT_NAME":"IRIDIUM 121","OBJECT_ID":"2017-039K","EPOCH":"2026-07-15T21:53:42.946368","CLASSIFICATION_TYPE":"U","MEAN_MOTION":14.34217728,"ECCENTRICITY":0.00022277,"INCLINATION":86.3992,"RA_OF_ASC_NODE":341.6641,"ARG_OF_PERICENTER":92.8819,"MEAN_ANOMALY":267.2632,"EPHEMERIS_TYPE":0,"NORAD_CAT_ID":42812,"ELEMENT_SET_NO":999,"REV_AT_EPOCH":47394,"BSTAR":0.000006039159,"MEAN_MOTION_DOT":3.7e-7,"MEAN_MOTION_DDOT":0},{"OBJECT_NAME":"IRIDIUM 133","OBJECT_ID":"2017-061A","EPOCH":"2026-07-15T21:58:38.797248","CLASSIFICATION_TYPE":"U","MEAN_MOTION":14.34217225,"ECCENTRICITY":0.0002203,"INCLINATION":86.3968,"RA_OF_ASC_NODE":13.2539,"ARG_OF_PERICENTER":91.0168,"MEAN_ANOMALY":269.1281,"EPHEMERIS_TYPE":0,"NORAD_CAT_ID":42955,"ELEMENT_SET_NO":999,"REV_AT_EPOCH":45889,"BSTAR":0.00000871321,"MEAN_MOTION_DOT":4.4e-7,"MEAN_MOTION_DDOT":0},{"OBJECT_NAME":"IRIDIUM 100","OBJECT_ID":"2017-061B","EPOCH":"2026-07-15T21:49:30.923616","CLASSIFICATION_TYPE":"U","MEAN_MOTION":14.34217236,"ECCENTRICITY":0.00022181,"INCLINATION":86.3965,"RA_OF_ASC_NODE":13.1745,"ARG_OF_PERICENTER":89.9672,"MEAN_ANOMALY":270.1778,"EPHEMERIS_TYPE":0,"NORAD_CAT_ID":42956,"ELEMENT_SET_NO":999,"REV_AT_EPOCH":45889,"BSTAR":0.000005170091,"MEAN_MOTION_DOT":3.4e-7,"MEAN_MOTION_DDOT":0},{"OBJECT_NAME":"IRIDIUM 122","OBJECT_ID":"2017-061C","EPOCH":"2026-07-15T22:44:18.531744","CLASSIFICATION_TYPE":"U","MEAN_MOTION":14.34217208,"ECCENTRICITY":0.00021306,"INCLINATION":86.3967,"RA_OF_ASC_NODE":13.159,"ARG_OF_PERICENTER":91.6844,"MEAN_ANOMALY":268.4596,"EPHEMERIS_TYPE":0,"NORAD_CAT_ID":42957,"ELEMENT_SET_NO":999,"REV_AT_EPOCH":45890,"BSTAR":0.000007088293,"MEAN_MOTION_DOT":4e-7,"MEAN_MOTION_DDOT":0},{"OBJECT_NAME":"IRIDIUM 129","OBJECT_ID":"2017-061D","EPOCH":"2026-07-15T21:40:22.639584","CLASSIFICATION_TYPE":"U","MEAN_MOTION":14.34217073,"ECCENTRICITY":0.00021319,"INCLINATION":86.3966,"RA_OF_ASC_NODE":13.2448,"ARG_OF_PERICENTER":83.7793,"MEAN_ANOMALY":276.3645,"EPHEMERIS_TYPE":0,"NORAD_CAT_ID":42958,"ELEMENT_SET_NO":999,"REV_AT_EPOCH":45891,"BSTAR":0.000005252732,"MEAN_MOTION_DOT":3.4e-7,"MEAN_MOTION_DDOT":0},{"OBJECT_NAME":"IRIDIUM 119","OBJECT_ID":"2017-061E","EPOCH":"2026-07-15T22:35:10.925088","CLASSIFICATION_TYPE":"U","MEAN_MOTION":14.34216774,"ECCENTRICITY":0.00021019,"INCLINATION":86.3967,"RA_OF_ASC_NODE":13.2248,"ARG_OF_PERICENTER":90.5252,"MEAN_ANOMALY":269.6185,"EPHEMERIS_TYPE":0,"NORAD_CAT_ID":42959,"ELEMENT_SET_NO":999,"REV_AT_EPOCH":45893,"BSTAR":0.000005308733,"MEAN_MOTION_DOT":3.5e-7,"MEAN_MOTION_DDOT":0},{"OBJECT_NAME":"IRIDIUM 107","OBJECT_ID":"2017-061F","EPOCH":"2026-07-15T23:02:34.677312","CLASSIFICATION_TYPE":"U","MEAN_MOTION":14.34217354,"ECCENTRICITY":0.00021139,"INCLINATION":86.3968,"RA_OF_ASC_NODE":13.2383,"ARG_OF_PERICENTER":96.996,"MEAN_ANOMALY":263.1476,"EPHEMERIS_TYPE":0,"NORAD_CAT_ID":42960,"ELEMENT_SET_NO":999,"REV_AT_EPOCH":45894,"BSTAR":0.000010102558,"MEAN_MOTION_DOT":4.8e-7,"MEAN_MOTION_DDOT":0},{"OBJECT_NAME":"IRIDIUM 132","OBJECT_ID":"2017-061G","EPOCH":"2026-07-15T23:11:42.848160","CLASSIFICATION_TYPE":"U","MEAN_MOTION":14.34216691,"ECCENTRICITY":0.00021776,"INCLINATION":86.3966,"RA_OF_ASC_NODE":13.2149,"ARG_OF_PERICENTER":90.4879,"MEAN_ANOMALY":269.6566,"EPHEMERIS_TYPE":0,"NORAD_CAT_ID":42961,"ELEMENT_SET_NO":999,"REV_AT_EPOCH":45894,"BSTAR":0.000005140487,"MEAN_MOTION_DOT":3.4e-7,"MEAN_MOTION_DDOT":0},{"OBJECT_NAME":"IRIDIUM 136","OBJECT_ID":"2017-061H","EPOCH":"2026-07-15T22:16:54.909120","CLASSIFICATION_TYPE":"U","MEAN_MOTION":14.34217246,"ECCENTRICITY":0.00022437,"INCLINATION":86.3967,"RA_OF_ASC_NODE":13.2376,"ARG_OF_PERICENTER":89.901,"MEAN_ANOMALY":270.2443,"EPHEMERIS_TYPE":0,"NORAD_CAT_ID":42962,"ELEMENT_SET_NO":999,"REV_AT_EPOCH":45895,"BSTAR":0.000005899574,"MEAN_MOTION_DOT":3.6e-7,"MEAN_MOTION_DDOT":0},{"OBJECT_NAME":"IRIDIUM 139","OBJECT_ID":"2017-061J","EPOCH":"2026-07-15T22:26:02.978016","CLASSIFICATION_TYPE":"U","MEAN_MOTION":14.3421721,"ECCENTRICITY":0.00022449,"INCLINATION":86.397,"RA_OF_ASC_NODE":13.2974,"ARG_OF_PERICENTER":92.0341,"MEAN_ANOMALY":268.1112,"EPHEMERIS_TYPE":0,"NORAD_CAT_ID":42963,"ELEMENT_SET_NO":999,"REV_AT_EPOCH":45896,"BSTAR":0.000007370773,"MEAN_MOTION_DOT":4e-7,"MEAN_MOTION_DDOT":0},{"OBJECT_NAME":"IRIDIUM 125","OBJECT_ID":"2017-061K","EPOCH":"2026-07-15T22:07:46.917984","CLASSIFICATION_TYPE":"U","MEAN_MOTION":14.34217446,"ECCENTRICITY":0.00016632,"INCLINATION":86.397,"RA_OF_ASC_NODE":13.3643,"ARG_OF_PERICENTER":93.3057,"MEAN_ANOMALY":266.8329,"EPHEMERIS_TYPE":0,"NORAD_CAT_ID":42964,"ELEMENT_SET_NO":999,"REV_AT_EPOCH":45897,"BSTAR":0.000003708303,"MEAN_MOTION_DOT":3e-7,"MEAN_MOTION_DDOT":0},{"OBJECT_NAME":"IRIDIUM 135","OBJECT_ID":"2017-083A","EPOCH":"2026-07-15T18:09:35.190720","CLASSIFICATION_TYPE":"U","MEAN_MOTION":14.3421815,"ECCENTRICITY":0.00021997,"INCLINATION":86.3987,"RA_OF_ASC_NODE":310.0732,"ARG_OF_PERICENTER":93.9957,"MEAN_ANOMALY":266.149,"EPHEMERIS_TYPE":0,"NORAD_CAT_ID":43070,"ELEMENT_SET_NO":999,"REV_AT_EPOCH":44824,"BSTAR":0.000020990335,"MEAN_MOTION_DOT":7.9e-7,"MEAN_MOTION_DDOT":0},{"OBJECT_NAME":"IRIDIUM 138","OBJECT_ID":"2017-083B","EPOCH":"2026-07-15T20:26:35.038752","CLASSIFICATION_TYPE":"U","MEAN_MOTION":14.34218786,"ECCENTRICITY":0.00020561,"INCLINATION":86.3999,"RA_OF_ASC_NODE":309.7332,"ARG_OF_PERICENTER":92.162,"MEAN_ANOMALY":267.9812,"EPHEMERIS_TYPE":0,"NORAD_CAT_ID":43071,"ELEMENT_SET_NO":999,"REV_AT_EPOCH":44824,"BSTAR":0.000041325133,"MEAN_MOTION_DOT":0.00000136,"MEAN_MOTION_DDOT":0}]}
