IRIDIUM 126             
1 42809U 17039G   26196.96304335  .00000012  00000+0 -27446-5 0  9991
2 42809  86.3992 341.6148 0002072  90.9643 269.1790 14.34217578474079
IRIDIUM 124             
1 42810U 17039H   26196.75532233  .00000187  00000+0  49524-4 0  9992
2 42810  86.4482 278.4146 0002324  97.0036 263.1429 14.43286373479230
IRIDIUM 128             
1 42811U 17039J   26196.88401595  .00000039  00000+0  67109-5 0  9999
2 42811  86.3965  13.1487 0002269  94.0642 266.0813 14.34216836474091
IRIDIUM 121             
1 42812U 17039K   26196.91230262  .00000037  00000+0  60392-5 0  9990
2 42812  86.3992 341.6641 0002227  92.8819 267.2632 14.34217728473945
IRIDIUM 133             
1 42955U 17061A   26196.91572682  .00000044  00000+0  87132-5 0  9997
2 42955  86.3968  13.2539 0002203  91.0168 269.1281 14.34217225458896
IRIDIUM 100             
1 42956U 17061B   26196.90938569  .00000034  00000+0  51701-5 0  9999
2 42956  86.3965  13.1745 0002218  89.9672 270.1778 14.34217236458899
IRIDIUM 122             
1 42957U 17061C   26196.94743671  .00000040  00000+0  70883-5 0  9991
2 42957  86.3967  13.1590 0002130  91.6844 268.4596 14.34217208458903
IRIDIUM 129             
1 42958U 17061D   26196.90303981  .00000034  00000+0  52527-5 0  9992
2 42958  86.3966  13.2448 0002131  83.7793 276.3645 14.34217073458916
IRIDIUM 119             
1 42959U 17061E   26196.94109867  .00000035  00000+0  53087-5 0  9997
2 42959  86.3967  13.2248 0002101  90.5252 269.6185 14.34216774458932
IRIDIUM 107             
1 42960U 17061F   26196.96012358  .00000048  00000+0  10103-4 0  9994
2 42960  86.3968  13.2383 0002113  96.9960 263.1476 14.34217354458942
IRIDIUM 132             
1 42961U 17061G   26196.96646815  .00000034  00000+0  51405-5 0  9992
2 42961  86.3966  13.2149 0002177  90.4879 269.6566 14.34216691458943
IRIDIUM 136             
1 42962U 17061H   26196.92841330  .00000036  00000+0  58996-5 0  9992
2 42962  86.3967  13.2376 0002243  89.9010 270.2443 14.34217246458951
IRIDIUM 139             
1 42963U 17061J   26196.93475669  .00000040  00000+0  73708-5 0  9995
2 42963  86.3970  13.2974 0002244  92.0341 268.1112 14.34217210458964
IRIDIUM 125             
1 42964U 17061K   26196.92207081  .00000030  00000+0  37083-5 0  9991
2 42964  86.3970  13.3643 0001663  93.3057 266.8329 14.34217446458978
IRIDIUM 135             
1 43070U 17083A   26196.75665730  .00000079  00000+0  20990-4 0  9995
2 43070  86.3987 310.0732 0002199  93.9957 266.1490 14.34218150448245
IRIDIUM 138             
1 43071U 17083B   26196.85179443  .00000136  00000+0  41325-4 0  9997
2 43071  86.3999 309.7332 0002056  92.1620 267.9812 14.34218786448242
